ONEWEB-0634             
1 56075U 23043AF  25273.64128529  .00000161  00000+0  39392-3 0  9997
2 56075  87.9008 311.0283 0002115 101.1059 259.0309 13.15547374122273
ONEWEB-0635             
1 56076U 23043AG  25273.63654830  .00000162  00000+0  39667-3 0  9992
2 56076  87.8990 310.9890 0001722  85.1192 275.0135 13.15548822122305
ONEWEB-0636             
1 56077U 23043AH  25273.62860166 -.00000167  00000+0 -47713-3 0  9991
2 56077  87.8990 311.0086 0001735  89.2906 270.8423 13.15548406122285
ONEWEB-0637             
1 56078U 23043AJ  25273.62228810 -.00000035  00000+0 -12609-3 0  9996
2 56078  87.8997 311.0229 0002083  87.1069 273.0299 13.15548994122307
ONEWEB-0647             
1 56079U 23043AK  25273.61750980 -.00000233  00000+0 -65239-3 0  9991
2 56079  87.8997 311.0372 0001648  93.5717 266.5602 13.15548143122293
ONEWEB-0651             
1 56080U 23043AL  25273.61278178 -.00000002  00000+0 -40385-4 0  9997
2 56080  87.9000 311.0300 0001893  86.1669 273.9677 13.15549164123499
ONEWEB-0718             
1 56081U 23043AM  25273.60801238 -.00000365  00000+0 -10034-2 0  9994
2 56081  87.8998 311.0119 0002366 102.0974 258.0422 13.15548033122301
ONEWEB-0561             
1 56710U 23068A   25273.65501375  .00000057  00000+0  10721-3 0  9994
2 56710  87.9242 326.2074 0001514  86.4193 273.7114 13.20771907115244
